HAWK-7A                 
1 56191U 23054P   26068.68910991  .00007758  00000+0  30248-3 0  9997
2 56191  97.2827 318.5579 0004249  51.2619 308.8999 15.26207271161849
STRIX-4                 
1 60352U 24137A   26068.65404516  .00020530  00000+0  71820-3 0  9996
2 60352  43.0134 129.8162 0016840   5.2738 354.8289 15.29026223 88766
